[{"OBJECT_NAME":"SHIYAN-27 B","OBJECT_ID":"2025-078B","EPOCH":"2026-03-09T23:40:17.469984","MEAN_MOTION":13.57241479,"ECCENTRICITY":7.406e-5,"INCLINATION":99.6953,"RA_OF_ASC_NODE":77.6552,"ARG_OF_PERICENTER":95.0681,"MEAN_ANOMALY":265.0542,"EPHEMERIS_TYPE":0,"CLASSIFICATION_TYPE":"U","NORAD_CAT_ID":63600,"ELEMENT_SET_NO":999,"REV_AT_EPOCH":4407,"BSTAR":8.3556223e-5,"MEAN_MOTION_DOT":1.5e-7,"MEAN_MOTION_DDOT":0},{"OBJECT_NAME":"SL-14 DEB","OBJECT_ID":"1991-056AH","EPOCH":"2026-03-09T05:38:25.141344","MEAN_MOTION":13.39661582,"ECCENTRICITY":0.00885628,"INCLINATION":82.5715,"RA_OF_ASC_NODE":159.4054,"ARG_OF_PERICENTER":123.0806,"MEAN_ANOMALY":237.8872,"EPHEMERIS_TYPE":0,"CLASSIFICATION_TYPE":"U","NORAD_CAT_ID":45295,"ELEMENT_SET_NO":999,"REV_AT_EPOCH":29436,"BSTAR":0.0022410523,"MEAN_MOTION_DOT":1.254e-5,"MEAN_MOTION_DDOT":0}]
